KUIPER-00160            
1 67765U 26030B   26063.75255651  .00036809  00000+0  10612-2 0  9992
2 67765  51.8813 242.9769 0004832  42.9176 317.2186 15.35355822  4331
KUIPER-00177            
1 67766U 26030C   26063.80580881  .00045380  00000+0  12654-2 0  9997
2 67766  51.8827 242.5916 0000986  16.8120 343.2899 15.36310570  4345
KUIPER-00178            
1 67767U 26030D   26063.75424924  .00029983  00000+0  86861-3 0  9990
2 67767  51.8832 242.9926 0005981  32.5538 327.5816 15.35301033  4331
KUIPER-00180            
1 67768U 26030E   26063.78343941  .00010043  00000+0  32953-3 0  9993
2 67768  51.8797 243.1737 0014640  54.3029 305.9316 15.32125736  4330
KUIPER-00197            
1 67769U 26030F   26063.74285097  .00042334  00000+0  11868-2 0  9996
2 67769  51.8835 242.9195 0001331  46.2995 313.8102 15.36176669  4330
KUIPER-00198            
1 67770U 26030G   26063.81263457  .00020511  00000+0  58919-3 0  9994
2 67770  51.8808 242.6311 0002974  36.2689 323.8498 15.35800226  4344
KUIPER-00199            
1 67771U 26030H   26063.76862280  .00042569  00000+0  12710-2 0  9993
2 67771  51.8809 243.0794 0010380  47.3877 312.7982 15.34146210  4337
KUIPER-00200            
1 67772U 26030J   26063.73481301  .00030738  00000+0  84848-3 0  9999
2 67772  51.8804 242.8644 0001334 214.5163 145.5737 15.36812247  4331
KUIPER-00203            
1 67773U 26030K   26063.83336806 -.01243579  00000+0 -53485-1 0  9993
2 67773  51.8816 242.9805 0012117  49.4214 186.0828 15.24952797  2902
KUIPER-00205            
1 67774U 26030L   26063.74359248  .00038942  00000+0  10936-2 0  9997
2 67774  51.8812 242.9207 0002827   6.3042 353.7979 15.36158693  4338
KUIPER-00208            
1 67775U 26030M   26063.78081860 -.00014164  00000+0 -43177-3 0  9990
2 67775  51.8823 243.1651 0013762  44.5755 315.6334 15.32539941  4339
KUIPER-00209            
1 67776U 26030N   26063.78538881 -.00041353  00000+0 -13520-2 0  9999
2 67776  51.8813 243.1923 0012577  51.8736 308.3380 15.31011124  4331
KUIPER-00213            
1 67777U 26030P   26063.78155952  .00034661  00000+0  10900-2 0  9995
2 67777  51.8795 243.1616 0014984  50.5360 309.6948 15.32539947  4336
KUIPER-00214            
1 67778U 26030Q   26063.73735189  .00028836  00000+0  80304-3 0  9990
2 67778  51.8839 242.8856 0000817 207.5643 152.5300 15.36570505  4332
KUIPER-00215            
1 67779U 26030R   26063.76705659  .00044658  00000+0  13287-2 0  9998
2 67779  51.8840 243.0777 0009989  47.0687 313.1135 15.34241139  4331
KUIPER-00218            
1 67780U 26030S   26063.75778922  .00038673  00000+0  11281-2 0  9994
2 67780  51.8834 243.0161 0006594  37.7900 322.3547 15.34955550  4334
KUIPER-00220            
1 67781U 26030T   26063.76371729  .00042549  00000+0  12556-2 0  9993
2 67781  51.8808 243.0482 0008347  42.9948 317.1689 15.34535049  4336
