[{"OBJECT_NAME":"KUIPER-00160","OBJECT_ID":"2026-030B","EPOCH":"2026-03-04T18:03:40.882464","MEAN_MOTION":15.35355822,"ECCENTRICITY":0.0004832,"INCLINATION":51.8813,"RA_OF_ASC_NODE":242.9769,"ARG_OF_PERICENTER":42.9176,"MEAN_ANOMALY":317.2186,"EPHEMERIS_TYPE":0,"CLASSIFICATION_TYPE":"U","NORAD_CAT_ID":67765,"ELEMENT_SET_NO":999,"REV_AT_EPOCH":433,"BSTAR":0.0010612,"MEAN_MOTION_DOT":0.00036809,"MEAN_MOTION_DDOT":0},{"OBJECT_NAME":"KUIPER-00177","OBJECT_ID":"2026-030C","EPOCH":"2026-03-04T19:20:21.881184","MEAN_MOTION":15.3631057,"ECCENTRICITY":9.86e-5,"INCLINATION":51.8827,"RA_OF_ASC_NODE":242.5916,"ARG_OF_PERICENTER":16.812,"MEAN_ANOMALY":343.2899,"EPHEMERIS_TYPE":0,"CLASSIFICATION_TYPE":"U","NORAD_CAT_ID":67766,"ELEMENT_SET_NO":999,"REV_AT_EPOCH":434,"BSTAR":0.0012654,"MEAN_MOTION_DOT":0.0004538,"MEAN_MOTION_DDOT":0},{"OBJECT_NAME":"KUIPER-00178","OBJECT_ID":"2026-030D","EPOCH":"2026-03-04T18:06:07.134336","MEAN_MOTION":15.35301033,"ECCENTRICITY":0.0005981,"INCLINATION":51.8832,"RA_OF_ASC_NODE":242.9926,"ARG_OF_PERICENTER":32.5538,"MEAN_ANOMALY":327.5816,"EPHEMERIS_TYPE":0,"CLASSIFICATION_TYPE":"U","NORAD_CAT_ID":67767,"ELEMENT_SET_NO":999,"REV_AT_EPOCH":433,"BSTAR":0.00086861,"MEAN_MOTION_DOT":0.00029983,"MEAN_MOTION_DDOT":0},{"OBJECT_NAME":"KUIPER-00180","OBJECT_ID":"2026-030E","EPOCH":"2026-03-04T18:48:09.165024","MEAN_MOTION":15.32125736,"ECCENTRICITY":0.001464,"INCLINATION":51.8797,"RA_OF_ASC_NODE":243.1737,"ARG_OF_PERICENTER":54.3029,"MEAN_ANOMALY":305.9316,"EPHEMERIS_TYPE":0,"CLASSIFICATION_TYPE":"U","NORAD_CAT_ID":67768,"ELEMENT_SET_NO":999,"REV_AT_EPOCH":433,"BSTAR":0.00032953,"MEAN_MOTION_DOT":0.00010043,"MEAN_MOTION_DDOT":0},{"OBJECT_NAME":"KUIPER-00197","OBJECT_ID":"2026-030F","EPOCH":"2026-03-04T17:49:42.323808","MEAN_MOTION":15.36176669,"ECCENTRICITY":0.0001331,"INCLINATION":51.8835,"RA_OF_ASC_NODE":242.9195,"ARG_OF_PERICENTER":46.2995,"MEAN_ANOMALY":313.8102,"EPHEMERIS_TYPE":0,"CLASSIFICATION_TYPE":"U","NORAD_CAT_ID":67769,"ELEMENT_SET_NO":999,"REV_AT_EPOCH":433,"BSTAR":0.0011868,"MEAN_MOTION_DOT":0.00042334,"MEAN_MOTION_DDOT":0},{"OBJECT_NAME":"KUIPER-00198","OBJECT_ID":"2026-030G","EPOCH":"2026-03-04T19:30:11.626848","MEAN_MOTION":15.35800226,"ECCENTRICITY":0.0002974,"INCLINATION":51.8808,"RA_OF_ASC_NODE":242.6311,"ARG_OF_PERICENTER":36.2689,"MEAN_ANOMALY":323.8498,"EPHEMERIS_TYPE":0,"CLASSIFICATION_TYPE":"U","NORAD_CAT_ID":67770,"ELEMENT_SET_NO":999,"REV_AT_EPOCH":434,"BSTAR":0.00058919,"MEAN_MOTION_DOT":0.00020511,"MEAN_MOTION_DDOT":0},{"OBJECT_NAME":"KUIPER-00199","OBJECT_ID":"2026-030H","EPOCH":"2026-03-04T18:26:49.009920","MEAN_MOTION":15.3414621,"ECCENTRICITY":0.001038,"INCLINATION":51.8809,"RA_OF_ASC_NODE":243.0794,"ARG_OF_PERICENTER":47.3877,"MEAN_ANOMALY":312.7982,"EPHEMERIS_TYPE":0,"CLASSIFICATION_TYPE":"U","NORAD_CAT_ID":67771,"ELEMENT_SET_NO":999,"REV_AT_EPOCH":433,"BSTAR":0.001271,"MEAN_MOTION_DOT":0.00042569,"MEAN_MOTION_DDOT":0},{"OBJECT_NAME":"KUIPER-00200","OBJECT_ID":"2026-030J","EPOCH":"2026-03-04T17:38:07.844064","MEAN_MOTION":15.36812247,"ECCENTRICITY":0.0001334,"INCLINATION":51.8804,"RA_OF_ASC_NODE":242.8644,"ARG_OF_PERICENTER":214.5163,"MEAN_ANOMALY":145.5737,"EPHEMERIS_TYPE":0,"CLASSIFICATION_TYPE":"U","NORAD_CAT_ID":67772,"ELEMENT_SET_NO":999,"REV_AT_EPOCH":433,"BSTAR":0.00084848,"MEAN_MOTION_DOT":0.00030738,"MEAN_MOTION_DDOT":0},{"OBJECT_NAME":"KUIPER-00203","OBJECT_ID":"2026-030K","EPOCH":"2026-03-04T20:00:03.000384","MEAN_MOTION":15.24952797,"ECCENTRICITY":0.0012117,"INCLINATION":51.8816,"RA_OF_ASC_NODE":242.9805,"ARG_OF_PERICENTER":49.4214,"MEAN_ANOMALY":186.0828,"EPHEMERIS_TYPE":0,"CLASSIFICATION_TYPE":"U","NORAD_CAT_ID":67773,"ELEMENT_SET_NO":999,"REV_AT_EPOCH":290,"BSTAR":-0.053485,"MEAN_MOTION_DOT":-0.01243579,"MEAN_MOTION_DDOT":0},{"OBJECT_NAME":"KUIPER-00205","OBJECT_ID":"2026-030L","EPOCH":"2026-03-04T17:50:46.390272","MEAN_MOTION":15.36158693,"ECCENTRICITY":0.0002827,"INCLINATION":51.8812,"RA_OF_ASC_NODE":242.9207,"ARG_OF_PERICENTER":6.3042,"MEAN_ANOMALY":353.7979,"EPHEMERIS_TYPE":0,"CLASSIFICATION_TYPE":"U","NORAD_CAT_ID":67774,"ELEMENT_SET_NO":999,"REV_AT_EPOCH":433,"BSTAR":0.0010936,"MEAN_MOTION_DOT":0.00038942,"MEAN_MOTION_DDOT":0},{"OBJECT_NAME":"KUIPER-00208","OBJECT_ID":"2026-030M","EPOCH":"2026-03-04T18:44:22.727040","MEAN_MOTION":15.32539941,"ECCENTRICITY":0.0013762,"INCLINATION":51.8823,"RA_OF_ASC_NODE":243.1651,"ARG_OF_PERICENTER":44.5755,"MEAN_ANOMALY":315.6334,"EPHEMERIS_TYPE":0,"CLASSIFICATION_TYPE":"U","NORAD_CAT_ID":67775,"ELEMENT_SET_NO":999,"REV_AT_EPOCH":433,"BSTAR":-0.00043177,"MEAN_MOTION_DOT":-0.00014164,"MEAN_MOTION_DDOT":0},{"OBJECT_NAME":"KUIPER-00209","OBJECT_ID":"2026-030N","EPOCH":"2026-03-04T18:50:57.593184","MEAN_MOTION":15.31011124,"ECCENTRICITY":0.0012577,"INCLINATION":51.8813,"RA_OF_ASC_NODE":243.1923,"ARG_OF_PERICENTER":51.8736,"MEAN_ANOMALY":308.338,"EPHEMERIS_TYPE":0,"CLASSIFICATION_TYPE":"U","NORAD_CAT_ID":67776,"ELEMENT_SET_NO":999,"REV_AT_EPOCH":433,"BSTAR":-0.001352,"MEAN_MOTION_DOT":-0.00041353,"MEAN_MOTION_DDOT":0},{"OBJECT_NAME":"KUIPER-00213","OBJECT_ID":"2026-030P","EPOCH":"2026-03-04T18:45:26.742528","MEAN_MOTION":15.32539947,"ECCENTRICITY":0.0014984,"INCLINATION":51.8795,"RA_OF_ASC_NODE":243.1616,"ARG_OF_PERICENTER":50.536,"MEAN_ANOMALY":309.6948,"EPHEMERIS_TYPE":0,"CLASSIFICATION_TYPE":"U","NORAD_CAT_ID":67777,"ELEMENT_SET_NO":999,"REV_AT_EPOCH":433,"BSTAR":0.00109,"MEAN_MOTION_DOT":0.00034661,"MEAN_MOTION_DDOT":0},{"OBJECT_NAME":"KUIPER-00214","OBJECT_ID":"2026-030Q","EPOCH":"2026-03-04T17:41:47.203296","MEAN_MOTION":15.36570505,"ECCENTRICITY":8.17e-5,"INCLINATION":51.8839,"RA_OF_ASC_NODE":242.8856,"ARG_OF_PERICENTER":207.5643,"MEAN_ANOMALY":152.53,"EPHEMERIS_TYPE":0,"CLASSIFICATION_TYPE":"U","NORAD_CAT_ID":67778,"ELEMENT_SET_NO":999,"REV_AT_EPOCH":433,"BSTAR":0.00080304,"MEAN_MOTION_DOT":0.00028836,"MEAN_MOTION_DDOT":0},{"OBJECT_NAME":"KUIPER-00215","OBJECT_ID":"2026-030R","EPOCH":"2026-03-04T18:24:33.689376","MEAN_MOTION":15.34241139,"ECCENTRICITY":0.0009989,"INCLINATION":51.884,"RA_OF_ASC_NODE":243.0777,"ARG_OF_PERICENTER":47.0687,"MEAN_ANOMALY":313.1135,"EPHEMERIS_TYPE":0,"CLASSIFICATION_TYPE":"U","NORAD_CAT_ID":67779,"ELEMENT_SET_NO":999,"REV_AT_EPOCH":433,"BSTAR":0.0013287,"MEAN_MOTION_DOT":0.00044658,"MEAN_MOTION_DDOT":0},{"OBJECT_NAME":"KUIPER-00218","OBJECT_ID":"2026-030S","EPOCH":"2026-03-04T18:11:12.988608","MEAN_MOTION":15.3495555,"ECCENTRICITY":0.0006594,"INCLINATION":51.8834,"RA_OF_ASC_NODE":243.0161,"ARG_OF_PERICENTER":37.79,"MEAN_ANOMALY":322.3547,"EPHEMERIS_TYPE":0,"CLASSIFICATION_TYPE":"U","NORAD_CAT_ID":67780,"ELEMENT_SET_NO":999,"REV_AT_EPOCH":433,"BSTAR":0.0011281,"MEAN_MOTION_DOT":0.00038673,"MEAN_MOTION_DDOT":0},{"OBJECT_NAME":"KUIPER-00220","OBJECT_ID":"2026-030T","EPOCH":"2026-03-04T18:19:45.173856","MEAN_MOTION":15.34535049,"ECCENTRICITY":0.0008347,"INCLINATION":51.8808,"RA_OF_ASC_NODE":243.0482,"ARG_OF_PERICENTER":42.9948,"MEAN_ANOMALY":317.1689,"EPHEMERIS_TYPE":0,"CLASSIFICATION_TYPE":"U","NORAD_CAT_ID":67781,"ELEMENT_SET_NO":999,"REV_AT_EPOCH":433,"BSTAR":0.0012556,"MEAN_MOTION_DOT":0.00042549,"MEAN_MOTION_DDOT":0}]
